[{"OBJECT_NAME":"STARLINK-6034","OBJECT_ID":"2023-058H","EPOCH":"2026-03-09T21:38:58.308864","MEAN_MOTION":15.05652451,"ECCENTRICITY":0.00017412,"INCLINATION":97.6039,"RA_OF_ASC_NODE":71.5027,"ARG_OF_PERICENTER":85.5246,"MEAN_ANOMALY":274.618,"EPHEMERIS_TYPE":0,"CLASSIFICATION_TYPE":"U","NORAD_CAT_ID":56324,"ELEMENT_SET_NO":999,"REV_AT_EPOCH":15788,"BSTAR":1.406853e-5,"MEAN_MOTION_DOT":1.42e-6,"MEAN_MOTION_DDOT":0},{"OBJECT_NAME":"CZ-6A DEB","OBJECT_ID":"2024-140GN","EPOCH":"2026-03-09T13:15:37.384128","MEAN_MOTION":14.8336719,"ECCENTRICITY":0.01353257,"INCLINATION":88.6725,"RA_OF_ASC_NODE":255.8629,"ARG_OF_PERICENTER":152.9061,"MEAN_ANOMALY":207.9314,"EPHEMERIS_TYPE":0,"CLASSIFICATION_TYPE":"U","NORAD_CAT_ID":60811,"ELEMENT_SET_NO":999,"REV_AT_EPOCH":8463,"BSTAR":0.00091817467,"MEAN_MOTION_DOT":8.879e-5,"MEAN_MOTION_DDOT":0}]
